*******************************************************************************
JPL/HORIZONS                476 Hedwig (A901 QB)           2020-Jun-22 09:09:43
Rec #:     476 (+COV) Soln.date: 2020-May-20_01:06:36   # obs: 2685 (1901-2020)
 
IAU76/J2000 helio. ecliptic osc. elements (au, days, deg., period=Julian yrs):
 
  EPOCH=  2455705.5 ! 2011-May-24.00 (TDB)         Residual RMS= .29708
   EC= .07462057142290496  QR= 2.451483287349734   TP= 2456387.8059174544
   OM= 286.4768972127674   W=  .5635159482494567   IN= 10.93740075665758
   A= 2.649165533233481    MA= 204.0377228193532   ADIST= 2.846847779117228
   PER= 4.31193            N= .228581152           ANGMOM= .027920519
   DAN= 2.45149            DDN= 2.84684            L= 287.0301776
   B= .1069178             MOID= 1.43458998        TP= 2013-Apr-05.3059174544
 
Asteroid physical parameters (km, seconds, rotational period in hours):
   GM= n.a.                RAD= 69.2465            ROTPER= 27.33
   H= 8.6                  G= .150                 B-V= .716
                           ALBEDO= .035            STYP= X
 
ASTEROID comments: 
1: soln ref.= JPL#104, OCC=0
2: source=ORB
*******************************************************************************
 
 
*******************************************************************************
Ephemeris / WWW_USER Mon Jun 22 09:09:43 2020 Pasadena, USA      / Horizons
*******************************************************************************
Target body name: 476 Hedwig (A901 QB)            {source: JPL#104}
Center body name: Solar System Barycenter (0)     {source: DE431}
Center-site name: BODY CENTER
*******************************************************************************
Start time      : A.D. 1969-Jun-28 00:00:00.0000 TDB
Stop  time      : A.D. 2071-May-04 00:00:00.0000 TDB
Step-size       : 7200 minutes
*******************************************************************************
Center geodetic : 0.00000000,0.00000000,0.0000000 {E-lon(deg),Lat(deg),Alt(km)}
Center cylindric: 0.00000000,0.00000000,0.0000000 {E-lon(deg),Dxy(km),Dz(km)}
Center radii    : (undefined)                                                  
Small perturbers: Yes                             {source: SB431-N16}
Output units    : AU-D
Output type     : GEOMETRIC cartesian states
Output format   : 2 (position and velocity)
Reference frame : Ecliptic of J2000.0
*******************************************************************************
Initial IAU76/J2000 heliocentric ecliptic osculating elements (au, days, deg.):
  EPOCH=  2455705.5 ! 2011-May-24.00 (TDB)         Residual RMS= .29708        
   EC= .07462057142290496  QR= 2.451483287349734   TP= 2456387.8059174544      
   OM= 286.4768972127674   W=  .5635159482494567   IN= 10.93740075665758       
  Equivalent ICRF heliocentric equatorial cartesian coordinates (au, au/d):
   X=-1.720476768130731E+00  Y= 2.133887167165911E+00  Z= 7.115225187859064E-01
  VX=-7.452066681232560E-03 VY=-5.028669314435434E-03 VZ=-4.057385195514663E-03
Asteroid physical parameters (km, seconds, rotational period in hours):        
   GM= n.a.                RAD= 69.2465            ROTPER= 27.33               
   H= 8.6                  G= .150                 B-V= .716                   
                           ALBEDO= .035            STYP= X                     
*******************************************************************************
            JDTDB,            Calendar Date (TDB),        delta-T,                      X,                      Y,                      Z,                     VX,                     VY,                     VZ,
******************************************************************************************************************************************************************************************************************
$$SOE
2455660.500000000, A.D. 2011-Apr-09 00:00:00.0000,      66.185656, -1.368096679798432E+00,  2.490584601072305E+00, -1.162531492490140E-01, -8.351388166321572E-03, -4.851512423734669E-03, -1.813593165253282E-03,
2455665.500000000, A.D. 2011-Apr-14 00:00:00.0000,      66.185640, -1.409631419861121E+00,  2.465926869263196E+00, -1.253018852989870E-01, -8.262048048024100E-03, -5.011339361505238E-03, -1.805802826096173E-03,
2455670.500000000, A.D. 2011-Apr-19 00:00:00.0000,      66.185611, -1.450712576934539E+00,  2.440473652614035E+00, -1.343101940004849E-01, -8.169957936377047E-03, -5.169699204737463E-03, -1.797422383653838E-03,
2455675.500000000, A.D. 2011-Apr-24 00:00:00.0000,      66.185570, -1.491326445869136E+00,  2.414232393936100E+00, -1.432751272645496E-01, -8.075135824738643E-03, -5.326549015125939E-03, -1.788452821086188E-03,
2455680.500000000, A.D. 2011-Apr-29 00:00:00.0000,      66.185519, -1.531459412487742E+00,  2.387210750780331E+00, -1.521937421019098E-01, -7.977600110400641E-03, -5.481845834110286E-03, -1.778895195370682E-03,
2455685.500000000, A.D. 2011-May-04 00:00:00.0000,      66.185459, -1.571097955631136E+00,  2.359416595553312E+00, -1.610631009960941E-01, -7.877369605034200E-03, -5.635546677054390E-03, -1.768750638930023E-03,
2455690.500000000, A.D. 2011-May-09 00:00:00.0000,      66.185387, -1.610228649257101E+00,  2.330858015661376E+00, -1.698802722849461E-01, -7.774463545635545E-03, -5.787608527825714E-03, -1.758020361364649E-03,
2455695.500000000, A.D. 2011-May-14 00:00:00.0000,      66.185304, -1.648838164595442E+00,  2.301543313680801E+00, -1.786423305510654E-01, -7.668901605961716E-03, -5.937988333776336E-03, -1.746705651292646E-03,
2455700.500000000, A.D. 2011-May-19 00:00:00.0000,      66.185211, -1.686913272361372E+00,  2.271481007552075E+00, -1.873463570217211E-01, -7.560703908447051E-03, -6.086643001138328E-03, -1.734807878296726E-03,
2455705.500000000, A.D. 2011-May-24 00:00:00.0000,      66.185110, -1.724440845029671E+00,  2.240679830796094E+00, -1.959894399787624E-01, -7.449891036582331E-03, -6.233529390860121E-03, -1.722328494977187E-03,
2455710.500000000, A.D. 2011-May-29 00:00:00.0000,      66.185002, -1.761407859171850E+00,  2.209148732750017E+00, -2.045686751790502E-01, -7.336484047747552E-03, -6.378604314915324E-03, -1.709269039105638E-03,
2455715.500000000, A.D. 2011-Jun-03 00:00:00.0000,      66.184888, -1.797801397858621E+00,  2.176896878820295E+00, -2.130811662859000E-01, -7.220504486492812E-03, -6.521824533130222E-03, -1.695631135874589E-03,
2455720.500000000, A.D. 2011-Jun-08 00:00:00.0000,      66.184767, -1.833608653129960E+00,  2.143933650750165E+00, -2.215240253120040E-01, -7.101974398321964E-03, -6.663146750578284E-03, -1.681416500242080E-03,
2455725.500000000, A.D. 2011-Jun-13 00:00:00.0000,      66.184639, -1.868816928535666E+00,  2.110268646898826E+00, -2.298943730743781E-01, -6.980916344131980E-03, -6.802527615479549E-03, -1.666626939407720E-03,
2455730.500000000, A.D. 2011-Jun-18 00:00:00.0000,      66.184506, -1.903413641750099E+00,  2.075911682530459E+00, -2.381893396622081E-01, -6.857353415440992E-03, -6.939923717305635E-03, -1.651264355510846E-03,
2455735.500000000, A.D. 2011-Jun-23 00:00:00.0000,      66.184370, -1.937386327264178E+00,  2.040872790112596E+00, -2.464060649187496E-01, -6.731309249924089E-03, -7.075291584978828E-03, -1.635330748528962E-03,
2455740.500000000, A.D. 2011-Jun-28 00:00:00.0000,      66.184233, -1.970722639154400E+00,  2.005162219621874E+00, -2.545416989377453E-01, -6.602808046670203E-03, -7.208587685888959E-03, -1.618828219144403E-03,
2455745.500000000, A.D. 2011-Jul-03 00:00:00.0000,      66.184095, -2.003410353928431E+00,  1.968790438851261E+00, -2.625934025739028E-01, -6.471874581729982E-03, -7.339768426263983E-03, -1.601758971532878E-03,
2455750.500000000, A.D. 2011-Jul-08 00:00:00.0000,      66.183956, -2.035437373450998E+00,  1.931768133713277E+00, -2.705583479676658E-01, -6.338534224735704E-03, -7.468790152251066E-03, -1.584125316333197E-03,
2455755.500000000, A.D. 2011-Jul-13 00:00:00.0000,      66.183815, -2.066791727955226E+00,  1.894106208537356E+00, -2.784337190855639E-01, -6.202812956367686E-03, -7.595609151162763E-03, -1.565929673903111E-03,
2455760.500000000, A.D. 2011-Jul-18 00:00:00.0000,      66.183675, -2.097461579142441E+00,  1.855815786360307E+00, -2.862167122773812E-01, -6.064737386227845E-03, -7.720181653038272E-03, -1.547174577775353E-03,
2455765.500000000, A.D. 2011-Jul-23 00:00:00.0000,      66.183538, -2.127435223372050E+00,  1.816908209207654E+00, -2.939045368509655E-01, -5.924334770997895E-03, -7.842463832755782E-03, -1.527862678252192E-03,
2455770.500000000, A.D. 2011-Jul-28 00:00:00.0000,      66.183406, -2.156701094942923E+00,  1.777395038362854E+00, -3.014944156653268E-01, -5.781633032875271E-03, -7.962411812773275E-03, -1.507996746127179E-03,
2455775.500000000, A.D. 2011-Aug-02 00:00:00.0000,      66.183279, -2.185247769467546E+00,  1.737288054621212E+00, -3.089835857426482E-01, -5.636660778230267E-03, -8.079981666513764E-03, -1.487579676523977E-03,
2455780.500000000, A.D. 2011-Aug-07 00:00:00.0000,      66.183157, -2.213063967339772E+00,  1.696599258525158E+00, -3.163692988997154E-01, -5.489447316369612E-03, -8.195129422449687E-03, -1.466614492817141E-03,
2455785.500000000, A.D. 2011-Aug-12 00:00:00.0000,      66.183039, -2.240138557296414E+00,  1.655340870577105E+00, -3.236488223990384E-01, -5.340022678292043E-03, -8.307811069009441E-03, -1.445104350578659E-03,
2455790.500000000, A.D. 2011-Aug-17 00:00:00.0000,      66.182927, -2.266460560072486E+00,  1.613525331425345E+00, -3.308194396196419E-01, -5.188417635393065E-03, -8.417982560494083E-03, -1.423052541489298E-03,
2455795.500000000, A.D. 2011-Aug-22 00:00:00.0000,      66.182823, -2.292019152149951E+00,  1.571165302017456E+00, -3.378784507472518E-01, -5.034663718190949E-03, -8.525599824177388E-03, -1.400462497183832E-03,
